*******************************************************************************
JPL/HORIZONS                 24 Themis (A853 GA)           2020-Jun-20 07:54:00
Rec #:      24 (+COV) Soln.date: 2020-May-20_00:56:34   # obs: 3892 (1853-2020)
 
IAU76/J2000 helio. ecliptic osc. elements (au, days, deg., period=Julian yrs):
 
  EPOCH=  2453504.5 ! 2005-May-14.00 (TDB)         Residual RMS= .32245
   EC= .1325824791058062   QR= 2.714645323922202   TP= 2452555.7995097274
   OM= 35.98345518832628   W=  107.9881488480917   IN= .7600878787787604
   A= 3.12957169821029     MA= 168.8907407240026   ADIST= 3.544498072498379
   PER= 5.5365             N= .178023241           ANGMOM= .030162887
   DAN= 3.20582            DDN= 2.95363            L= 143.973085
   B= .7229331             MOID= 1.72658002        TP= 2002-Oct-08.2995097274
 
Asteroid physical parameters (km, seconds, rotational period in hours):
   GM= n.a.                RAD= 99.                ROTPER= 8.374
   H= 7.3                  G= .190                 B-V= .684
                           ALBEDO= .067            STYP= B
 
ASTEROID comments: 
1: soln ref.= JPL#115, OCC=0
2: source=ORB
*******************************************************************************
 
 
*******************************************************************************
Ephemeris / WWW_USER Sat Jun 20 07:54:00 2020 Pasadena, USA      / Horizons
*******************************************************************************
Target body name: 24 Themis (A853 GA)             {source: JPL#115}
Center body name: Solar System Barycenter (0)     {source: DE431}
Center-site name: BODY CENTER
*******************************************************************************
Start time      : A.D. 1969-Jun-28 00:00:00.0000 TDB
Stop  time      : A.D. 2071-May-04 00:00:00.0000 TDB
Step-size       : 7200 minutes
*******************************************************************************
Center geodetic : 0.00000000,0.00000000,0.0000000 {E-lon(deg),Lat(deg),Alt(km)}
Center cylindric: 0.00000000,0.00000000,0.0000000 {E-lon(deg),Dxy(km),Dz(km)}
Center radii    : (undefined)                                                  
Small perturbers: Yes                             {source: SB431-N16}
Output units    : AU-D
Output type     : GEOMETRIC cartesian states
Output format   : 2 (position and velocity)
Reference frame : Ecliptic of J2000.0
*******************************************************************************
Initial IAU76/J2000 heliocentric ecliptic osculating elements (au, days, deg.):
  EPOCH=  2453504.5 ! 2005-May-14.00 (TDB)         Residual RMS= .32245        
   EC= .1325824791058062   QR= 2.714645323922202   TP= 2452555.7995097274      
   OM= 35.98345518832628   W=  107.9881488480917   IN= .7600878787787604       
  Equivalent ICRF heliocentric equatorial cartesian coordinates (au, au/d):
   X= 2.518302965590537E+00  Y=-2.261750170512815E+00  Z=-1.031063789392534E+00
  VX= 6.126184048168983E-03 VY= 5.434922978882305E-03 VZ= 2.373672918930158E-03
Asteroid physical parameters (km, seconds, rotational period in hours):        
   GM= n.a.                RAD= 99.                ROTPER= 8.374               
   H= 7.3                  G= .190                 B-V= .684                   
                           ALBEDO= .067            STYP= B                     
*******************************************************************************
            JDTDB,            Calendar Date (TDB),        delta-T,                      X,                      Y,                      Z,                     VX,                     VY,                     VZ,
******************************************************************************************************************************************************************************************************************
$$SOE
2466020.500000000, A.D. 2039-Aug-20 00:00:00.0000,      69.182850,  3.454477214366400E+00,  1.065610124163966E-01, -2.515811916552111E-02, -8.459133892825632E-04,  8.761470253026179E-03,  9.585513608234035E-05,
2466025.500000000, A.D. 2039-Aug-25 00:00:00.0000,      69.182757,  3.449936806476540E+00,  1.503571580011428E-01, -2.467660374530242E-02, -9.702743817576367E-04,  8.756722796768814E-03,  9.674850603746856E-05,
2466030.500000000, A.D. 2039-Aug-30 00:00:00.0000,      69.182670,  3.444774237267431E+00,  1.941255824068486E-01, -2.419065952492408E-02, -1.094775336494616E-03,  8.750380553963905E-03,  9.762662407597215E-05,
2466035.500000000, A.D. 2039-Sep-04 00:00:00.0000,      69.182592,  3.438988845800804E+00,  2.378582932845617E-01, -2.370036324628330E-02, -1.219400670946015E-03,  8.742436157306152E-03,  9.848929701875144E-05,
2466040.500000000, A.D. 2039-Sep-09 00:00:00.0000,      69.182524,  3.432580049555702E+00,  2.815472614387056E-01, -2.320579262100757E-02, -1.344134599819788E-03,  8.732882235899141E-03,  9.933633014635715E-05,
2466045.500000000, A.D. 2039-Sep-14 00:00:00.0000,      69.182469,  3.425547345455805E+00,  3.251844208160756E-01, -2.270702633824892E-02, -1.468961129656791E-03,  8.721711418082770E-03,  1.001675271628299E-04,
2466050.500000000, A.D. 2039-Sep-19 00:00:00.0000,      69.182426,  3.417890310923671E+00,  3.687616685096862E-01, -2.220414407264636E-02, -1.593864053475681E-03,  8.708916334549323E-03,  1.009826901646151E-04,
2466055.500000000, A.D. 2039-Sep-24 00:00:00.0000,      69.182394,  3.409608604961710E+00,  4.122708647789597E-01, -2.169722649242751E-02, -1.718826945421860E-03,  8.694489621766036E-03,  1.017816196166349E-04,
2466060.500000000, A.D. 2039-Sep-29 00:00:00.0000,      69.182373,  3.400701969260037E+00,  4.557038330878036E-01, -2.118635526760609E-02, -1.843833155357165E-03,  8.678423925706712E-03,  1.025641143380299E-04,
2466065.500000000, A.D. 2039-Oct-04 00:00:00.0000,      69.182362,  3.391170229331652E+00,  4.990523601620791E-01, -2.067161307822315E-02, -1.968865803335303E-03,  8.660711905871341E-03,  1.033299714991524E-04,
2466070.500000000, A.D. 2039-Oct-09 00:00:00.0000,      69.182364,  3.381013295675572E+00,  5.423081960678252E-01, -2.015308362257636E-02, -2.093907773938740E-03,  8.641346239563705E-03,  1.040789866289758E-04,
2466075.500000000, A.D. 2039-Oct-14 00:00:00.0000,      69.182379,  3.370231164968643E+00,  5.854630543114516E-01, -1.963085162539090E-02, -2.218941710475402E-03,  8.620319626397544E-03,  1.048109536307449E-04,
2466080.500000000, A.D. 2039-Oct-19 00:00:00.0000,      69.182408,  3.358823921286684E+00,  6.285086119630031E-01, -1.910500284589711E-02, -2.343950009050634E-03,  8.597624793017466E-03,  1.055256648028226E-04,
2466085.500000000, A.D. 2039-Oct-24 00:00:00.0000,      69.182448,  3.346791737355565E+00,  6.714365098035445E-01, -1.857562408579804E-02, -2.468914812523022E-03,  8.573254498023335E-03,  1.062229108616262E-04,
2466090.500000000, A.D. 2039-Oct-29 00:00:00.0000,      69.182499,  3.334134875832757E+00,  7.142383524976305E-01, -1.804280319712607E-02, -2.593818004360846E-03,  8.547201537075246E-03,  1.069024809616086E-04,
2466095.500000000, A.D. 2039-Nov-03 00:00:00.0000,      69.182559,  3.320853690619760E+00,  7.569057087916572E-01, -1.750662909002439E-02, -2.718641202461086E-03,  8.519458748130959E-03,  1.075641627041392E-04,
2466100.500000000, A.D. 2039-Nov-08 00:00:00.0000,      69.182632,  3.306948628205176E+00,  7.994301117386787E-01, -1.696719174052473E-02, -2.843365753095465E-03,  8.490019016804096E-03,  1.082077421303113E-04,
2466105.500000000, A.D. 2039-Nov-13 00:00:00.0000,      69.182716,  3.292420229037456E+00,  8.418030589506030E-01, -1.642458219837122E-02, -2.967972725099102E-03,  8.458875281999637E-03,  1.088330037150858E-04,
2466110.500000000, A.D. 2039-Nov-18 00:00:00.0000,      69.182811,  3.277269128926537E+00,  8.840160128797546E-01, -1.587889259479998E-02, -3.092442904042407E-03,  8.426020542039574E-03,  1.094397303946581E-04,
2466115.500000000, A.D. 2039-Nov-23 00:00:00.0000,      69.182914,  3.261496060475544E+00,  9.260604011320703E-01, -1.533021615010819E-02, -3.216756786014320E-03,  8.391447861135713E-03,  1.100277036156171E-04,
2466120.500000000, A.D. 2039-Nov-28 00:00:00.0000,      69.183025,  3.245101854544214E+00,  9.679276168128548E-01, -1.477864718101619E-02, -3.340894571225360E-03,  8.355150375909953E-03,  1.105967033647558E-04,
2466125.500000000, A.D. 2039-Dec-03 00:00:00.0000,      69.183142,  3.228087441743848E+00,  1.009609018905250E+00, -1.422428110794150E-02, -3.464836157835587E-03,  8.317121301993918E-03,  1.111465081772991E-04,
2466130.500000000, A.D. 2039-Dec-08 00:00:00.0000,      69.183266,  3.210453853962470E+00,  1.051095932682331E+00, -1.366721446223488E-02, -3.588561136017930E-03,  8.277353940901509E-03,  1.116768951473707E-04,
2466135.500000000, A.D. 2039-Dec-13 00:00:00.0000,      69.183397,  3.192202225919389E+00,  1.092379650154383E+00, -1.310754489333785E-02, -3.712048782112932E-03,  8.235841687231878E-03,  1.121876399490445E-04,
2466140.500000000, A.D. 2039-Dec-18 00:00:00.0000,      69.183535,  3.173333796748906E+00,  1.133451430553001E+00, -1.254537117581130E-02, -3.835278052820672E-03,  8.192578036186181E-03,  1.126785168655033E-04,
2466145.500000000, A.D. 2039-Dec-23 00:00:00.0000,      69.183675,  3.153849911612942E+00,  1.174302500853515E+00, -1.198079321620676E-02, -3.958227579435524E-03,  8.147556591385623E-03,  1.131492988236996E-04,
2466150.500000000, A.D. 2039-Dec-28 00:00:00.0000,      69.183816,  3.133752023342359E+00,  1.214924056337257E+00, -1.141391205975132E-02, -4.080875662140613E-03,  8.100771072988934E-03,  1.135997574331660E-04,
2466155.500000000, A.D. 2040-Jan-02 00:00:00.0000,      69.183958,  3.113041694106634E+00,  1.255307261195187E+00, -1.084482989682953E-02, -4.203200264376829E-03,  8.052215326117511E-03,  1.140296630290490E-04,
